{"type": "FeatureCollection", "features": [{"type": "Feature", "properties": {"norad_id": 28054, "name": "DMSP 5D-3 F16 (USA 172)", "group": "weather", "lat": -29.039258898631722, "lon": -168.88681902030936, "alt_km": 848.7928326729943, "timestamp": "2025-12-24T14:43:28.638085+00:00", "meta": {"OBJECT_NAME": "DMSP 5D-3 F16 (USA 172)", "OBJECT_ID": "2003-048A", "EPOCH": "2025-12-24T05:32:42.868608", "MEAN_MOTION": 14.14428192, "ECCENTRICITY": 0.00062524, "INCLINATION": 99.0038, "RA_OF_ASC_NODE": 15.778, "ARG_OF_PERICENTER": 284.0188, "MEAN_ANOMALY": 138.9259, "EPHEMERIS_TYPE": 0, "CLASSIFICATION_TYPE": "U", "NORAD_CAT_ID": 28054, "ELEMENT_SET_NO": 999, "REV_AT_EPOCH": 14475, "BSTAR": 8.1438634e-05, "MEAN_MOTION_DOT": 1.1e-06, "MEAN_MOTION_DDOT": 0}, "tle": {"line1": "1 28054U 03048A   25358.23105172  .00000110  00000+0  81439-4 0  9998", "line2": "2 28054  99.0038  15.7780 0006252 284.0188 138.9259 14.14428192144758"}}, "geometry": {"type": "Point", "coordinates": [-168.88681902030936, -29.039258898631722]}}, {"type": "Feature", "properties": {"norad_id": 28912, "name": "METEOSAT-9 (MSG-2)", "group": "weather", "lat": -7.459884603036095, "lon": -0.2081163078563622, "alt_km": 35555.35822075226, "timestamp": "2025-12-24T14:43:28.638141+00:00", "meta": {"OBJECT_NAME": "METEOSAT-9 (MSG-2)", "OBJECT_ID": "2005-049B", "EPOCH": "2025-12-23T18:29:06.029088", "MEAN_MOTION": 1.00268078, "ECCENTRICITY": 0.00595948, "INCLINATION": 8.9546, "RA_OF_ASC_NODE": 55.8585, "ARG_OF_PERICENTER": 281.8406, "MEAN_ANOMALY": 77.1031, "EPHEMERIS_TYPE": 0, "CLASSIFICATION_TYPE": "U", "NORAD_CAT_ID": 28912, "ELEMENT_SET_NO": 999, "REV_AT_EPOCH": 523, "BSTAR": 0, "MEAN_MOTION_DOT": 1.44e-06, "MEAN_MOTION_DDOT": 0}, "tle": {"line1": "1 28912U 05049B   25357.77020867  .00000144  00000+0  00000+0 0  9996", "line2": "2 28912   8.9546  55.8585 0059594 281.8406  77.1031  1.00268078  5234"}}, "geometry": {"type": "Point", "coordinates": [-0.2081163078563622, -7.459884603036095]}}, {"type": "Feature", "properties": {"norad_id": 29522, "name": "DMSP 5D-3 F17 (USA 191)", "group": "weather", "lat": 9.138080800737386, "lon": -174.826837541948, "alt_km": 837.4398483673058, "timestamp": "2025-12-24T14:43:28.638159+00:00", "meta": {"OBJECT_NAME": "DMSP 5D-3 F17 (USA 191)", "OBJECT_ID": "2006-050A", "EPOCH": "2025-12-24T07:07:54.623136", "MEAN_MOTION": 14.14924384, "ECCENTRICITY": 0.00099045, "INCLINATION": 98.7392, "RA_OF_ASC_NODE": 3.4456, "ARG_OF_PERICENTER": 190.3701, "MEAN_ANOMALY": 169.727, "EPHEMERIS_TYPE": 0, "CLASSIFICATION_TYPE": "U", "NORAD_CAT_ID": 29522, "ELEMENT_SET_NO": 999, "REV_AT_EPOCH": 98768, "BSTAR": 9.9210704e-05, "MEAN_MOTION_DOT": 1.49e-06, "MEAN_MOTION_DDOT": 0}, "tle": {"line1": "1 29522U 06050A   25358.29715999  .00000149  00000+0  99211-4 0  9994", "line2": "2 29522  98.7392   3.4456 0009904 190.3701 169.7270 14.14924384987685"}}, "geometry": {"type": "Point", "coordinates": [-174.826837541948, 9.138080800737386]}}, {"type": "Feature", "properties": {"norad_id": 32958, "name": "FENGYUN 3A", "group": "weather", "lat": 77.34345267703294, "lon": -104.9194946684842, "alt_km": 825.0736582676363, "timestamp": "2025-12-24T14:43:28.638173+00:00", "meta": {"OBJECT_NAME": "FENGYUN 3A", "OBJECT_ID": "2008-026A", "EPOCH": "2025-12-24T02:30:13.083840", "MEAN_MOTION": 14.19517967, "ECCENTRICITY": 0.00076164, "INCLINATION": 98.6714, "RA_OF_ASC_NODE": 297.3926, "ARG_OF_PERICENTER": 273.6201, "MEAN_ANOMALY": 86.4104, "EPHEMERIS_TYPE": 0, "CLASSIFICATION_TYPE": "U", "NORAD_CAT_ID": 32958, "ELEMENT_SET_NO": 999, "REV_AT_EPOCH": 91056, "BSTAR": 7.2115529e-05, "MEAN_MOTION_DOT": 1.09e-06, "MEAN_MOTION_DDOT": 0}, "tle": {"line1": "1 32958U 08026A   25358.10431810  .00000109  00000+0  72116-4 0  9994", "line2": "2 32958  98.6714 297.3926 0007616 273.6201  86.4104 14.19517967910567"}}, "geometry": {"type": "Point", "coordinates": [-104.9194946684842, 77.34345267703294]}}, {"type": "Feature", "properties": {"norad_id": 35491, "name": "GOES 14", "group": "weather", "lat": 1.1441083641453424, "lon": -162.98981541522105, "alt_km": 35834.44324370269, "timestamp": "2025-12-24T14:43:28.638187+00:00", "meta": {"OBJECT_NAME": "GOES 14", "OBJECT_ID": "2009-033A", "EPOCH": "2025-12-24T05:59:38.935680", "MEAN_MOTION": 1.00097036, "ECCENTRICITY": 6.261e-05, "INCLINATION": 1.2319, "RA_OF_ASC_NODE": 85.2877, "ARG_OF_PERICENTER": 190.0306, "MEAN_ANOMALY": 150.6123, "EPHEMERIS_TYPE": 0, "CLASSIFICATION_TYPE": "U", "NORAD_CAT_ID": 35491, "ELEMENT_SET_NO": 999, "REV_AT_EPOCH": 483, "BSTAR": 0, "MEAN_MOTION_DOT": 3.3e-07, "MEAN_MOTION_DDOT": 0}, "tle": {"line1": "1 35491U 09033A   25358.24975620  .00000033  00000+0  00000+0 0  9999", "line2": "2 35491   1.2319  85.2877 0000626 190.0306 150.6123  1.00097036  4839"}}, "geometry": {"type": "Point", "coordinates": [-162.98981541522105, 1.1441083641453424]}}, {"type": "Feature", "properties": {"norad_id": 35951, "name": "DMSP 5D-3 F18 (USA 210)", "group": "weather", "lat": 31.337671267685238, "lon": -30.509913979823274, "alt_km": 832.7849237971768, "timestamp": "2025-12-24T14:43:28.638200+00:00", "meta": {"OBJECT_NAME": "DMSP 5D-3 F18 (USA 210)", "OBJECT_ID": "2009-057A", "EPOCH": "2025-12-24T06:05:19.249728", "MEAN_MOTION": 14.14776659, "ECCENTRICITY": 0.00117334, "INCLINATION": 98.8848, "RA_OF_ASC_NODE": 334.5976, "ARG_OF_PERICENTER": 32.3451, "MEAN_ANOMALY": 327.8439, "EPHEMERIS_TYPE": 0, "CLASSIFICATION_TYPE": "U", "NORAD_CAT_ID": 35951, "ELEMENT_SET_NO": 999, "REV_AT_EPOCH": 83485, "BSTAR": 0.00016334559, "MEAN_MOTION_DOT": 2.71e-06, "MEAN_MOTION_DDOT": 0}, "tle": {"line1": "1 35951U 09057A   25358.25369502  .00000271  00000+0  16335-3 0  9999", "line2": "2 35951  98.8848 334.5976 0011733  32.3451 327.8439 14.14776659834854"}}, "geometry": {"type": "Point", "coordinates": [-30.509913979823274, 31.337671267685238]}}, {"type": "Feature", "properties": {"norad_id": 36411, "name": "EWS-G2 (GOES 15)", "group": "weather", "lat": -0.791423916876594, "lon": 15.665349171864426, "alt_km": 35794.67187433322, "timestamp": "2025-12-24T14:43:28.638214+00:00", "meta": {"OBJECT_NAME": "EWS-G2 (GOES 15)", "OBJECT_ID": "2010-008A", "EPOCH": "2025-12-24T04:49:52.660416", "MEAN_MOTION": 1.00271078, "ECCENTRICITY": 0.0005556, "INCLINATION": 0.8402, "RA_OF_ASC_NODE": 86.0683, "ARG_OF_PERICENTER": 178.7638, "MEAN_ANOMALY": 321.9717, "EPHEMERIS_TYPE": 0, "CLASSIFICATION_TYPE": "U", "NORAD_CAT_ID": 36411, "ELEMENT_SET_NO": 999, "REV_AT_EPOCH": 5788, "BSTAR": 0, "MEAN_MOTION_DOT": 5.9e-07, "MEAN_MOTION_DDOT": 0}, "tle": {"line1": "1 36411U 10008A   25358.20130394  .00000059  00000+0  00000+0 0  9991", "line2": "2 36411   0.8402  86.0683 0005556 178.7638 321.9717  1.00271078 57887"}}, "geometry": {"type": "Point", "coordinates": [15.665349171864426, -0.791423916876594]}}, {"type": "Feature", "properties": {"norad_id": 36744, "name": "COMS 1", "group": "weather", "lat": 0.3656488485063711, "lon": 82.41411060092874, "alt_km": 35789.51271796069, "timestamp": "2025-12-24T14:43:28.638228+00:00", "meta": {"OBJECT_NAME": "COMS 1", "OBJECT_ID": "2010-032A", "EPOCH": "2025-12-23T21:08:51.785952", "MEAN_MOTION": 1.0027056, "ECCENTRICITY": 8.154e-05, "INCLINATION": 4.3655, "RA_OF_ASC_NODE": 77.8722, "ARG_OF_PERICENTER": 213.5288, "MEAN_ANOMALY": 246.655, "EPHEMERIS_TYPE": 0, "CLASSIFICATION_TYPE": "U", "NORAD_CAT_ID": 36744, "ELEMENT_SET_NO": 999, "REV_AT_EPOCH": 4933, "BSTAR": 0, "MEAN_MOTION_DOT": -3.25e-06, "MEAN_MOTION_DDOT": 0}, "tle": {"line1": "1 36744U 10032A   25357.88115493 -.00000325  00000+0  00000+0 0  9990", "line2": "2 36744   4.3655  77.8722 0000815 213.5288 246.6550  1.00270560 49333"}}, "geometry": {"type": "Point", "coordinates": [82.41411060092874, 0.3656488485063711]}}, {"type": "Feature", "properties": {"norad_id": 37214, "name": "FENGYUN 3B", "group": "weather", "lat": -2.649612568743761, "lon": 39.09254267807653, "alt_km": 833.3156025440667, "timestamp": "2025-12-24T14:43:28.638242+00:00", "meta": {"OBJECT_NAME": "FENGYUN 3B", "OBJECT_ID": "2010-059A", "EPOCH": "2025-12-24T06:52:46.528032", "MEAN_MOTION": 14.14792534, "ECCENTRICITY": 0.00215239, "INCLINATION": 98.9887, "RA_OF_ASC_NODE": 38.3438, "ARG_OF_PERICENTER": 324.6368, "MEAN_ANOMALY": 168.7237, "EPHEMERIS_TYPE": 0, "CLASSIFICATION_TYPE": "U", "NORAD_CAT_ID": 37214, "ELEMENT_SET_NO": 999, "REV_AT_EPOCH": 78269, "BSTAR": 0.00010776317, "MEAN_MOTION_DOT": 1.63e-06, "MEAN_MOTION_DDOT": 0}, "tle": {"line1": "1 37214U 10059A   25358.28664963  .00000163  00000+0  10776-3 0  9992", "line2": "2 37214  98.9887  38.3438 0021523 324.6368 168.7237 14.14792534782698"}}, "geometry": {"type": "Point", "coordinates": [39.09254267807653, -2.649612568743761]}}, {"type": "Feature", "properties": {"norad_id": 37849, "name": "SUOMI NPP", "group": "weather", "lat": 38.908974819804605, "lon": -71.3163028114365, "alt_km": 823.0400046723289, "timestamp": "2025-12-24T14:43:28.638253+00:00", "meta": {"OBJECT_NAME": "SUOMI NPP", "OBJECT_ID": "2011-061A", "EPOCH": "2025-12-22T15:10:21.732672", "MEAN_MOTION": 14.19516903, "ECCENTRICITY": 0.00024883, "INCLINATION": 98.7787, "RA_OF_ASC_NODE": 293.8852, "ARG_OF_PERICENTER": 103.0781, "MEAN_ANOMALY": 257.0673, "EPHEMERIS_TYPE": 0, "CLASSIFICATION_TYPE": "U", "NORAD_CAT_ID": 37849, "ELEMENT_SET_NO": 999, "REV_AT_EPOCH": 73339, "BSTAR": 6.3406935e-05, "MEAN_MOTION_DOT": 8.9e-07, "MEAN_MOTION_DDOT": 0}, "tle": {"line1": "1 37849U 11061A   25356.63219598  .00000089  00000+0  63407-4 0  9994", "line2": "2 37849  98.7787 293.8852 0002488 103.0781 257.0673 14.19516903733392"}}, "geometry": {"type": "Point", "coordinates": [-71.3163028114365, 38.908974819804605]}}]}